{"type": "FeatureCollection", "features": [ {"type": "Feature", "properties": {"norad_id": 34058, "name": "COSMOS 2251 DEB", "group": "cosmos-2251-debris", "lat": -44.338020416844074, "lon": 178.22674630343573, "alt_km": 1196.046832355264, "timestamp": "2025-12-02T13:52:17.654920+00:00", "meta": {"OBJECT_NAME": "COSMOS 2251 DEB", "OBJECT_ID": "1993-036JV", "EPOCH": "2025-12-02T07:38:42.154080", "MEAN_MOTION": 13.56054583, "ECCENTRICITY": 0.03783756, "INCLINATION": 73.9322, "RA_OF_ASC_NODE": 195.0038, "ARG_OF_PERICENTER": 192.2255, "MEAN_ANOMALY": 291.3893, "EPHEMERIS_TYPE": 0, "CLASSIFICATION_TYPE": "U", "NORAD_CAT_ID": 34058, "ELEMENT_SET_NO": 999, "REV_AT_EPOCH": 83001, "BSTAR": 0.00060397756, "MEAN_MOTION_DOT": 6.49e-06, "MEAN_MOTION_DDOT": 0}, "tle": {"line1": "1 34058U 93036JV  25336.31854345  .00000649  00000+0  60398-3 0  9990", "line2": "2 34058  73.9322 195.0038 0378375 192.2255 291.3893 13.56054583830010"}}, "geometry": {"type": "Point", "coordinates": [178.22674630343573, -44.338020416844074]}}, {"type": "Feature", "properties": {"norad_id": 34059, "name": "COSMOS 2251 DEB", "group": "cosmos-2251-debris", "lat": -48.41748501715286, "lon": 44.26203544467798, "alt_km": 714.6882891757305, "timestamp": "2025-12-02T13:52:17.654930+00:00", "meta": {"OBJECT_NAME": "COSMOS 2251 DEB", "OBJECT_ID": "1993-036JW", "EPOCH": "2025-12-02T01:59:03.278112", "MEAN_MOTION": 14.52846856, "ECCENTRICITY": 0.00188712, "INCLINATION": 74.0387, "RA_OF_ASC_NODE": 206.3783, "ARG_OF_PERICENTER": 284.5914, "MEAN_ANOMALY": 237.0675, "EPHEMERIS_TYPE": 0, "CLASSIFICATION_TYPE": "U", "NORAD_CAT_ID": 34059, "ELEMENT_SET_NO": 999, "REV_AT_EPOCH": 88304, "BSTAR": 0.00087447936, "MEAN_MOTION_DOT": 3.579e-05, "MEAN_MOTION_DDOT": 0}, "tle": {"line1": "1 34059U 93036JW  25336.08267683  .00003579  00000+0  87448-3 0  9998", "line2": "2 34059  74.0387 206.3783 0018871 284.5914 237.0675 14.52846856883041"}}, "geometry": {"type": "Point", "coordinates": [44.26203544467798, -48.41748501715286]}}, {"type": "Feature", "properties": {"norad_id": 34061, "name": "COSMOS 2251 DEB", "group": "cosmos-2251-debris", "lat": -40.954868334176254, "lon": -92.21022018402323, "alt_km": 753.2801766227522, "timestamp": "2025-12-02T13:52:17.654940+00:00", "meta": {"OBJECT_NAME": "COSMOS 2251 DEB", "OBJECT_ID": "1993-036JY", "EPOCH": "2025-12-02T06:17:46.094784", "MEAN_MOTION": 14.40316642, "ECCENTRICITY": 0.00200999, "INCLINATION": 74.0391, "RA_OF_ASC_NODE": 282.7551, "ARG_OF_PERICENTER": 1.5687, "MEAN_ANOMALY": 119.705, "EPHEMERIS_TYPE": 0, "CLASSIFICATION_TYPE": "U", "NORAD_CAT_ID": 34061, "ELEMENT_SET_NO": 999, "REV_AT_EPOCH": 88029, "BSTAR": 0.0005003885, "MEAN_MOTION_DOT": 1.564e-05, "MEAN_MOTION_DDOT": 0}, "tle": {"line1": "1 34061U 93036JY  25336.26233906  .00001564  00000+0  50039-3 0  9990", "line2": "2 34061  74.0391 282.7551 0020099   1.5687 119.7050 14.40316642880298"}}, "geometry": {"type": "Point", "coordinates": [-92.21022018402323, -40.954868334176254]}}, {"type": "Feature", "properties": {"norad_id": 34062, "name": "COSMOS 2251 DEB", "group": "cosmos-2251-debris", "lat": 49.356233692529194, "lon": -41.479516556908784, "alt_km": 649.7253842447572, "timestamp": "2025-12-02T13:52:17.654951+00:00", "meta": {"OBJECT_NAME": "COSMOS 2251 DEB", "OBJECT_ID": "1993-036JZ", "EPOCH": "2025-12-01T23:14:57.066720", "MEAN_MOTION": 14.77994029, "ECCENTRICITY": 0.00765107, "INCLINATION": 74.0273, "RA_OF_ASC_NODE": 159.208, "ARG_OF_PERICENTER": 240.2672, "MEAN_ANOMALY": 247.9251, "EPHEMERIS_TYPE": 0, "CLASSIFICATION_TYPE": "U", "NORAD_CAT_ID": 34062, "ELEMENT_SET_NO": 999, "REV_AT_EPOCH": 88436, "BSTAR": 0.0026156774, "MEAN_MOTION_DOT": 0.0001984, "MEAN_MOTION_DDOT": 0}, "tle": {"line1": "1 34062U 93036JZ  25335.96871605  .00019840  00000+0  26157-2 0  9990", "line2": "2 34062  74.0273 159.2080 0076510 240.2672 247.9251 14.77994029884368"}}, "geometry": {"type": "Point", "coordinates": [-41.479516556908784, 49.356233692529194]}}, {"type": "Feature", "properties": {"norad_id": 34064, "name": "COSMOS 2251 DEB", "group": "cosmos-2251-debris", "lat": -37.05315178278316, "lon": 122.20331235466078, "alt_km": 768.6608839808096, "timestamp": "2025-12-02T13:52:17.654961+00:00", "meta": {"OBJECT_NAME": "COSMOS 2251 DEB", "OBJECT_ID": "1993-036KB", "EPOCH": "2025-12-02T06:46:05.478240", "MEAN_MOTION": 14.42273504, "ECCENTRICITY": 0.00217368, "INCLINATION": 74.0324, "RA_OF_ASC_NODE": 290.2677, "ARG_OF_PERICENTER": 358.2183, "MEAN_ANOMALY": 124.5297, "EPHEMERIS_TYPE": 0, "CLASSIFICATION_TYPE": "U", "NORAD_CAT_ID": 34064, "ELEMENT_SET_NO": 999, "REV_AT_EPOCH": 87991, "BSTAR": 0.00073927768, "MEAN_MOTION_DOT": 2.42e-05, "MEAN_MOTION_DDOT": 0}, "tle": {"line1": "1 34064U 93036KB  25336.28200785  .00002420  00000+0  73928-3 0  9998", "line2": "2 34064  74.0324 290.2677 0021736 358.2183 124.5297 14.42273504879917"}}, "geometry": {"type": "Point", "coordinates": [122.20331235466078, -37.05315178278316]}}, {"type": "Feature", "properties": {"norad_id": 34065, "name": "COSMOS 2251 DEB", "group": "cosmos-2251-debris", "lat": 26.411969339409726, "lon": -74.98858994092636, "alt_km": 752.4965203580887, "timestamp": "2025-12-02T13:52:17.654971+00:00", "meta": {"OBJECT_NAME": "COSMOS 2251 DEB", "OBJECT_ID": "1993-036KC", "EPOCH": "2025-12-02T07:37:54.990048", "MEAN_MOTION": 14.38043276, "ECCENTRICITY": 0.00158943, "INCLINATION": 74.0356, "RA_OF_ASC_NODE": 277.3164, "ARG_OF_PERICENTER": 17.2779, "MEAN_ANOMALY": 104.9596, "EPHEMERIS_TYPE": 0, "CLASSIFICATION_TYPE": "U", "NORAD_CAT_ID": 34065, "ELEMENT_SET_NO": 999, "REV_AT_EPOCH": 88055, "BSTAR": 0.00023911095, "MEAN_MOTION_DOT": 6.99e-06, "MEAN_MOTION_DDOT": 0}, "tle": {"line1": "1 34065U 93036KC  25336.31799757  .00000699  00000+0  23911-3 0  9998", "line2": "2 34065  74.0356 277.3164 0015894  17.2779 104.9596 14.38043276880553"}}, "geometry": {"type": "Point", "coordinates": [-74.98858994092636, 26.411969339409726]}}, {"type": "Feature", "properties": {"norad_id": 34070, "name": "COSMOS 2251 DEB", "group": "cosmos-2251-debris", "lat": -58.12350390625064, "lon": 108.74242581259014, "alt_km": 638.3114768957685, "timestamp": "2025-12-02T13:52:17.654980+00:00", "meta": {"OBJECT_NAME": "COSMOS 2251 DEB", "OBJECT_ID": "1993-036KH", "EPOCH": "2025-12-02T05:12:11.189952", "MEAN_MOTION": 14.76407231, "ECCENTRICITY": 0.00193572, "INCLINATION": 73.9995, "RA_OF_ASC_NODE": 136.93, "ARG_OF_PERICENTER": 250.6679, "MEAN_ANOMALY": 288.2269, "EPHEMERIS_TYPE": 0, "CLASSIFICATION_TYPE": "U", "NORAD_CAT_ID": 34070, "ELEMENT_SET_NO": 999, "REV_AT_EPOCH": 88455, "BSTAR": 0.0030009551, "MEAN_MOTION_DOT": 0.00020959, "MEAN_MOTION_DDOT": 0}, "tle": {"line1": "1 34070U 93036KH  25336.21679618  .00020959  00000+0  30010-2 0  9994", "line2": "2 34070  73.9995 136.9300 0019357 250.6679 288.2269 14.76407231884552"}}, "geometry": {"type": "Point", "coordinates": [108.74242581259014, -58.12350390625064]}}, {"type": "Feature", "properties": {"norad_id": 34114, "name": "COSMOS 2251 DEB", "group": "cosmos-2251-debris", "lat": 4.990153217544838, "lon": -118.34919018754357, "alt_km": 720.584781864899, "timestamp": "2025-12-02T13:52:17.654991+00:00", "meta": {"OBJECT_NAME": "COSMOS 2251 DEB", "OBJECT_ID": "1993-036KK", "EPOCH": "2025-12-02T04:56:30.158304", "MEAN_MOTION": 14.56122069, "ECCENTRICITY": 0.00472129, "INCLINATION": 74.0597, "RA_OF_ASC_NODE": 63.7851, "ARG_OF_PERICENTER": 62.5205, "MEAN_ANOMALY": 322.0263, "EPHEMERIS_TYPE": 0, "CLASSIFICATION_TYPE": "U", "NORAD_CAT_ID": 34114, "ELEMENT_SET_NO": 999, "REV_AT_EPOCH": 87648, "BSTAR": 0.0021264861, "MEAN_MOTION_DOT": 9.508e-05, "MEAN_MOTION_DDOT": 0}, "tle": {"line1": "1 34114U 93036KK  25336.20590461  .00009508  00000+0  21265-2 0  9999", "line2": "2 34114  74.0597  63.7851 0047212  62.5205 322.0263 14.56122069876480"}}, "geometry": {"type": "Point", "coordinates": [-118.34919018754357, 4.990153217544838]}}, {"type": "Feature", "properties": {"norad_id": 34115, "name": "COSMOS 2251 DEB", "group": "cosmos-2251-debris", "lat": 16.057454018940234, "lon": 77.23727081719899, "alt_km": 626.8414936167264, "timestamp": "2025-12-02T13:52:17.655001+00:00", "meta": {"OBJECT_NAME": "COSMOS 2251 DEB", "OBJECT_ID": "1993-036KL", "EPOCH": "2025-12-02T05:01:24.574080", "MEAN_MOTION": 14.79213518, "ECCENTRICITY": 0.00282078, "INCLINATION": 74.0069, "RA_OF_ASC_NODE": 262.6988, "ARG_OF_PERICENTER": 89.361, "MEAN_ANOMALY": 271.0798, "EPHEMERIS_TYPE": 0, "CLASSIFICATION_TYPE": "U", "NORAD_CAT_ID": 34115, "ELEMENT_SET_NO": 999, "REV_AT_EPOCH": 89256, "BSTAR": 0.001389496, "MEAN_MOTION_DOT": 0.00010369, "MEAN_MOTION_DDOT": 0}, "tle": {"line1": "1 34115U 93036KL  25336.20931220  .00010369  00000+0  13895-2 0  9999", "line2": "2 34115  74.0069 262.6988 0028207  89.3610 271.0798 14.79213518892564"}}, "geometry": {"type": "Point", "coordinates": [77.23727081719899, 16.057454018940234]}}, {"type": "Feature", "properties": {"norad_id": 34116, "name": "COSMOS 2251 DEB", "group": "cosmos-2251-debris", "lat": 11.799523359903846, "lon": -154.63080434033398, "alt_km": 717.8966359975202, "timestamp": "2025-12-02T13:52:17.655012+00:00", "meta": {"OBJECT_NAME": "COSMOS 2251 DEB", "OBJECT_ID": "1993-036KM", "EPOCH": "2025-12-02T02:48:34.614720", "MEAN_MOTION": 14.52877795, "ECCENTRICITY": 0.00123213, "INCLINATION": 74.0407, "RA_OF_ASC_NODE": 202.8109, "ARG_OF_PERICENTER": 278.9141, "MEAN_ANOMALY": 203.5687, "EPHEMERIS_TYPE": 0, "CLASSIFICATION_TYPE": "U", "NORAD_CAT_ID": 34116, "ELEMENT_SET_NO": 999, "REV_AT_EPOCH": 88332, "BSTAR": 0.00080268187, "MEAN_MOTION_DOT": 3.28e-05, "MEAN_MOTION_DDOT": 0}, "tle": {"line1": "1 34116U 93036KM  25336.11706730  .00003280  00000+0  80268-3 0  9999", "line2": "2 34116  74.0407 202.8109 0012321 278.9141 203.5687 14.52877795883322"}}, "geometry": {"type": "Point", "coordinates": [-154.63080434033398, 11.799523359903846]}}]}